{
 "generated_at": "2026-06-16T10:08:45Z",
 "sources": [
  {
   "name": "CelesTrak",
   "url": "https://celestrak.org/NORAD/elements/",
   "license": "frei verfügbar; Attribution. Ursprünglich USSPACECOM/Space-Track."
  },
  {
   "name": "GCAT (J. McDowell, planet4589.org)",
   "url": "https://planet4589.org/space/gcat/",
   "license": "CC-BY 4.0"
  }
 ],
 "satellites": [
  {
   "norad": 43833,
   "name": "SAUDISAT 5B",
   "intl": "2018-102C",
   "group": "resource",
   "gcat": {
    "class": "C",
    "category": "TECH",
    "owner": "KACST",
    "state": "SA"
   },
   "omm": {
    "OBJECT_NAME": "SAUDISAT 5B",
    "OBJECT_ID": "2018-102C",
    "EPOCH": "2026-06-16T04:50:14.391744",
    "MEAN_MOTION": 15.28296921,
    "ECCENTRICITY": 0.0011621,
    "INCLINATION": 97.3177,
    "RA_OF_ASC_NODE": 231.8694,
    "ARG_OF_PERICENTER": 134.2852,
    "MEAN_ANOMALY": 225.9343,
    "EPHEMERIS_TYPE": 0,
    "CLASSIFICATION_TYPE": "U",
    "NORAD_CAT_ID": 43833,
    "ELEMENT_SET_NO": 999,
    "REV_AT_EPOCH": 41564,
    "BSTAR": 0.00016966,
    "MEAN_MOTION_DOT": 0.00004611,
    "MEAN_MOTION_DDOT": 0
   }
  },
  {
   "norad": 41790,
   "name": "SCATSAT 1",
   "intl": "2016-059H",
   "group": "resource",
   "gcat": {
    "class": null,
    "category": null,
    "owner": null,
    "state": null
   },
   "omm": {
    "OBJECT_NAME": "SCATSAT 1",
    "OBJECT_ID": "2016-059H",
    "EPOCH": "2026-06-15T22:16:44.135040",
    "MEAN_MOTION": 14.79523114,
    "ECCENTRICITY": 0.0053342,
    "INCLINATION": 98.1191,
    "RA_OF_ASC_NODE": 230.6814,
    "ARG_OF_PERICENTER": 251.6526,
    "MEAN_ANOMALY": 107.8878,
    "EPHEMERIS_TYPE": 0,
    "CLASSIFICATION_TYPE": "U",
    "NORAD_CAT_ID": 41790,
    "ELEMENT_SET_NO": 999,
    "REV_AT_EPOCH": 10140,
    "BSTAR": 0.00012836,
    "MEAN_MOTION_DOT": 0.00000925,
    "MEAN_MOTION_DDOT": 0
   }
  },
  {
   "norad": 22490,
   "name": "SCD 1",
   "intl": "1993-009B",
   "group": "resource",
   "gcat": {
    "class": "C",
    "category": "COM",
    "owner": "INPE",
    "state": "BR"
   },
   "omm": {
    "OBJECT_NAME": "SCD 1",
    "OBJECT_ID": "1993-009B",
    "EPOCH": "2026-06-15T20:56:37.591584",
    "MEAN_MOTION": 14.46118505,
    "ECCENTRICITY": 0.00421068,
    "INCLINATION": 24.9679,
    "RA_OF_ASC_NODE": 215.6946,
    "ARG_OF_PERICENTER": 123.8363,
    "MEAN_ANOMALY": 37.2877,
    "EPHEMERIS_TYPE": 0,
    "CLASSIFICATION_TYPE": "U",
    "NORAD_CAT_ID": 22490,
    "ELEMENT_SET_NO": 999,
    "REV_AT_EPOCH": 76092,
    "BSTAR": 0.000046676741,
    "MEAN_MOTION_DOT": 0.00000357,
    "MEAN_MOTION_DDOT": 0
   }
  },
  {
   "norad": 25504,
   "name": "SCD 2",
   "intl": "1998-060A",
   "group": "resource",
   "gcat": {
    "class": "C",
    "category": "COM",
    "owner": "INPE",
    "state": "BR"
   },
   "omm": {
    "OBJECT_NAME": "SCD 2",
    "OBJECT_ID": "1998-060A",
    "EPOCH": "2026-06-16T01:17:19.495104",
    "MEAN_MOTION": 14.45525509,
    "ECCENTRICITY": 0.0016966,
    "INCLINATION": 24.9952,
    "RA_OF_ASC_NODE": 79.1473,
    "ARG_OF_PERICENTER": 111.082,
    "MEAN_ANOMALY": 271.9229,
    "EPHEMERIS_TYPE": 0,
    "CLASSIFICATION_TYPE": "U",
    "NORAD_CAT_ID": 25504,
    "ELEMENT_SET_NO": 999,
    "REV_AT_EPOCH": 46016,
    "BSTAR": 0.000050288,
    "MEAN_MOTION_DOT": 0.00000362,
    "MEAN_MOTION_DDOT": 0
   }
  },
  {
   "norad": 39634,
   "name": "SENTINEL-1A",
   "intl": "2014-016A",
   "group": "resource",
   "gcat": {
    "class": "C",
    "category": "IMG-R",
    "owner": "ESA",
    "state": "I-ESA"
   },
   "omm": {
    "OBJECT_NAME": "SENTINEL-1A",
    "OBJECT_ID": "2014-016A",
    "EPOCH": "2026-06-16T04:50:33.925056",
    "MEAN_MOTION": 14.59199471,
    "ECCENTRICITY": 0.0001421,
    "INCLINATION": 98.177,
    "RA_OF_ASC_NODE": 174.7487,
    "ARG_OF_PERICENTER": 82.7844,
    "MEAN_ANOMALY": 277.3517,
    "EPHEMERIS_TYPE": 0,
    "CLASSIFICATION_TYPE": "U",
    "NORAD_CAT_ID": 39634,
    "ELEMENT_SET_NO": 999,
    "REV_AT_EPOCH": 64987,
    "BSTAR": 0.000034577,
    "MEAN_MOTION_DOT": 0.00000117,
    "MEAN_MOTION_DDOT": 0
   }
  },
  {
   "norad": 62261,
   "name": "SENTINEL-1C",
   "intl": "2024-235A",
   "group": "sar",
   "gcat": {
    "class": "C",
    "category": "IMG-R",
    "owner": "COPERN/ESA",
    "state": "I-EU"
   },
   "omm": {
    "OBJECT_NAME": "SENTINEL-1C",
    "OBJECT_ID": "2024-235A",
    "EPOCH": "2026-06-16T04:04:21.743040",
    "MEAN_MOTION": 14.58604242,
    "ECCENTRICITY": 0.0001361,
    "INCLINATION": 98.182,
    "RA_OF_ASC_NODE": 174.4957,
    "ARG_OF_PERICENTER": 89.9009,
    "MEAN_ANOMALY": 270.2346,
    "EPHEMERIS_TYPE": 0,
    "CLASSIFICATION_TYPE": "U",
    "NORAD_CAT_ID": 62261,
    "ELEMENT_SET_NO": 999,
    "REV_AT_EPOCH": 8126,
    "BSTAR": 0.000037297,
    "MEAN_MOTION_DOT": 0.00000128,
    "MEAN_MOTION_DDOT": 0
   }
  },
  {
   "norad": 66315,
   "name": "SENTINEL-1D",
   "intl": "2025-251A",
   "group": "sar",
   "gcat": {
    "class": "C",
    "category": "IMG-R",
    "owner": "COPERN/ESA",
    "state": "I-EU"
   },
   "omm": {
    "OBJECT_NAME": "SENTINEL-1D",
    "OBJECT_ID": "2025-251A",
    "EPOCH": "2026-06-16T00:01:51.870720",
    "MEAN_MOTION": 14.59198369,
    "ECCENTRICITY": 0.0001364,
    "INCLINATION": 98.1828,
    "RA_OF_ASC_NODE": 174.3777,
    "ARG_OF_PERICENTER": 90.596,
    "MEAN_ANOMALY": 269.5396,
    "EPHEMERIS_TYPE": 0,
    "CLASSIFICATION_TYPE": "U",
    "NORAD_CAT_ID": 66315,
    "ELEMENT_SET_NO": 999,
    "REV_AT_EPOCH": 3255,
    "BSTAR": 0.000039763,
    "MEAN_MOTION_DOT": 0.00000142,
    "MEAN_MOTION_DDOT": 0
   }
  },
  {
   "norad": 40697,
   "name": "SENTINEL-2A",
   "intl": "2015-028A",
   "group": "resource",
   "gcat": {
    "class": "C",
    "category": "IMG",
    "owner": "COPERN/ESA",
    "state": "I-EU"
   },
   "omm": {
    "OBJECT_NAME": "SENTINEL-2A",
    "OBJECT_ID": "2015-028A",
    "EPOCH": "2026-06-16T03:58:39.764928",
    "MEAN_MOTION": 14.30815133,
    "ECCENTRICITY": 0.0001088,
    "INCLINATION": 98.569,
    "RA_OF_ASC_NODE": 242.0316,
    "ARG_OF_PERICENTER": 89.8322,
    "MEAN_ANOMALY": 270.2985,
    "EPHEMERIS_TYPE": 0,
    "CLASSIFICATION_TYPE": "U",
    "NORAD_CAT_ID": 40697,
    "ELEMENT_SET_NO": 999,
    "REV_AT_EPOCH": 57358,
    "BSTAR": 0.000054526,
    "MEAN_MOTION_DOT": 9.9e-7,
    "MEAN_MOTION_DDOT": 0
   }
  },
  {
   "norad": 42063,
   "name": "SENTINEL-2B",
   "intl": "2017-013A",
   "group": "resource",
   "gcat": {
    "class": "C",
    "category": "IMG",
    "owner": "COPERN/ESA",
    "state": "I-EU"
   },
   "omm": {
    "OBJECT_NAME": "SENTINEL-2B",
    "OBJECT_ID": "2017-013A",
    "EPOCH": "2026-06-16T03:48:17.864640",
    "MEAN_MOTION": 14.30816676,
    "ECCENTRICITY": 0.0001177,
    "INCLINATION": 98.5698,
    "RA_OF_ASC_NODE": 241.9471,
    "ARG_OF_PERICENTER": 87.9712,
    "MEAN_ANOMALY": 272.1606,
    "EPHEMERIS_TYPE": 0,
    "CLASSIFICATION_TYPE": "U",
    "NORAD_CAT_ID": 42063,
    "ELEMENT_SET_NO": 999,
    "REV_AT_EPOCH": 48449,
    "BSTAR": 0.000031951,
    "MEAN_MOTION_DOT": 4e-7,
    "MEAN_MOTION_DDOT": 0
   }
  },
  {
   "norad": 60989,
   "name": "SENTINEL-2C",
   "intl": "2024-157A",
   "group": "resource",
   "gcat": {
    "class": "C",
    "category": "IMG",
    "owner": "COPERN/ESA",
    "state": "I-EU"
   },
   "omm": {
    "OBJECT_NAME": "SENTINEL-2C",
    "OBJECT_ID": "2024-157A",
    "EPOCH": "2026-06-16T04:38:40.521120",
    "MEAN_MOTION": 14.30817576,
    "ECCENTRICITY": 0.0001029,
    "INCLINATION": 98.5692,
    "RA_OF_ASC_NODE": 241.9895,
    "ARG_OF_PERICENTER": 81.0061,
    "MEAN_ANOMALY": 279.1238,
    "EPHEMERIS_TYPE": 0,
    "CLASSIFICATION_TYPE": "U",
    "NORAD_CAT_ID": 60989,
    "ELEMENT_SET_NO": 999,
    "REV_AT_EPOCH": 9284,
    "BSTAR": 0.000052939,
    "MEAN_MOTION_DOT": 9.5e-7,
    "MEAN_MOTION_DDOT": 0
   }
  }
 ]
}
