SCD 1                   
1 22490U 93009B   26166.87265731  .00000357  00000+0  46677-4 0  9996
2 22490  24.9679 215.6946 0042106 123.8363  37.2877 14.46118505760921
SCD 2                   
1 25504U 98060A   26167.05369786  .00000362  00000+0  50288-4 0  9992
2 25504  24.9952  79.1473 0016966 111.0820 271.9229 14.45525509460160
SENTINEL-1A             
1 39634U 14016A   26167.20178154  .00000117  00000+0  34577-4 0  9995
2 39634  98.1770 174.7487 0001421  82.7844 277.3517 14.59199471649874
SENTINEL-2A             
1 40697U 15028A   26167.16573802  .00000099  00000+0  54526-4 0  9999
2 40697  98.5690 242.0316 0001088  89.8322 270.2985 14.30815133573582
SCATSAT 1               
1 41790U 16059H   26166.92828860  .00000925  00000+0  12836-3 0  9994
2 41790  98.1191 230.6814 0053342 251.6526 107.8878 14.79523114101402
SENTINEL-2B             
1 42063U 17013A   26167.15854010  .00000040  00000+0  31951-4 0  9999
2 42063  98.5698 241.9471 0001177  87.9712 272.1606 14.30816676484495
SAUDISAT 5B             
1 43833U 18102C   26167.20155546  .00004611  00000+0  16966-3 0  9995
2 43833  97.3177 231.8694 0011621 134.2852 225.9343 15.28296921415649
SENTINEL-2C             
1 60989U 24157A   26167.19352455  .00000095  00000+0  52939-4 0  9992
2 60989  98.5692 241.9895 0001029  81.0061 279.1238 14.30817576 92846
SENTINEL-1C             
1 62261U 24235A   26167.16969610  .00000128  00000+0  37297-4 0  9995
2 62261  98.1820 174.4957 0001361  89.9009 270.2346 14.58604242 81267
SENTINEL-1D             
1 66315U 25251A   26167.00129480  .00000142  00000+0  39763-4 0  9990
2 66315  98.1828 174.3777 0001364  90.5960 269.5396 14.59198369 32558
